{
  "norad_id": 63050,
  "name": "STARLINK-32816",
  "history": [
    {
      "epoch": "2026-03-28T15:01:53.816448Z",
      "apogee_km": 476.13068409491734,
      "perigee_km": 474.27562198229316,
      "latitude_deg": 7.470439536405136e-06,
      "longitude_deg": 131.59980802621328,
      "height_km": 475.7929671368936,
      "semi_major_axis_km": 6853.340153038605,
      "eccentricity": 0.00013534,
      "inclination_deg": 53.159,
      "raan_deg": 183.1181,
      "arg_perigee_deg": 70.596,
      "mean_anomaly_deg": 289.5187,
      "mean_motion_rev_day": 15.30203991
    },
    {
      "epoch": "2026-03-30T06:13:13.850112Z",
      "apogee_km": 475.9219716349753,
      "perigee_km": 474.50798805449267,
      "latitude_deg": 2.353079374644949e-05,
      "longitude_deg": -105.42868380778009,
      "height_km": 475.871214292876,
      "semi_major_axis_km": 6853.351979844733,
      "eccentricity": 0.00010316,
      "inclination_deg": 53.159,
      "raan_deg": 175.5325,
      "arg_perigee_deg": 69.9711,
      "mean_anomaly_deg": 290.1401,
      "mean_motion_rev_day": 15.3020003
    },
    {
      "epoch": "2026-03-30T12:29:26.878272Z",
      "apogee_km": 476.1364886169449,
      "perigee_km": 474.3163723570751,
      "latitude_deg": -1.2662803925194771e-06,
      "longitude_deg": 159.04910253931183,
      "height_km": 475.9222042301942,
      "semi_major_axis_km": 6853.363430487009,
      "eccentricity": 0.00013279,
      "inclination_deg": 53.1589,
      "raan_deg": 174.3221,
      "arg_perigee_deg": 77.1658,
      "mean_anomaly_deg": 282.9491,
      "mean_motion_rev_day": 15.30196195
    },
    {
      "epoch": "2026-03-31T12:00:14.491872Z",
      "apogee_km": 476.22394642763993,
      "perigee_km": 474.43519165312046,
      "latitude_deg": 1.0114105134873756e-05,
      "longitude_deg": 160.8333683960382,
      "height_km": 476.3492863240912,
      "semi_major_axis_km": 6853.46656904038,
      "eccentricity": 0.0001305,
      "inclination_deg": 53.1592,
      "raan_deg": 169.7704,
      "arg_perigee_deg": 97.8257,
      "mean_anomaly_deg": 262.2892,
      "mean_motion_rev_day": 15.30161653
    },
    {
      "epoch": "2026-04-01T11:31:02.947008Z",
      "apogee_km": 476.09784243079775,
      "perigee_km": 474.29541568635614,
      "latitude_deg": 5.118967706284898e-05,
      "longitude_deg": 162.6134404142466,
      "height_km": 476.11612292204944,
      "semi_major_axis_km": 6853.333629058577,
      "eccentricity": 0.0001315,
      "inclination_deg": 53.1593,
      "raan_deg": 165.218,
      "arg_perigee_deg": 91.3709,
      "mean_anomaly_deg": 268.7443,
      "mean_motion_rev_day": 15.30206176
    },
    {
      "epoch": "2026-04-02T14:09:56.787840Z",
      "apogee_km": 476.138156074554,
      "perigee_km": 474.29446696668765,
      "latitude_deg": 2.3560705472669694e-05,
      "longitude_deg": 116.63707773608223,
      "height_km": 476.2689385746341,
      "semi_major_axis_km": 6853.35331152062,
      "eccentricity": 0.00013451,
      "inclination_deg": 53.1596,
      "raan_deg": 160.0604,
      "arg_perigee_deg": 99.6595,
      "mean_anomaly_deg": 260.4558,
      "mean_motion_rev_day": 15.30199584
    },
    {
      "epoch": "2026-04-02T22:00:11.880288Z",
      "apogee_km": 475.8350625284711,
      "perigee_km": 474.30405618311124,
      "latitude_deg": 2.8878825488415617e-05,
      "longitude_deg": -2.76007901656709,
      "height_km": 475.83085514380736,
      "semi_major_axis_km": 6853.206559355791,
      "eccentricity": 0.0001117,
      "inclination_deg": 53.1604,
      "raan_deg": 158.548,
      "arg_perigee_deg": 79.6849,
      "mean_anomaly_deg": 280.4278,
      "mean_motion_rev_day": 15.30248735
    },
    {
      "epoch": "2026-04-03T13:40:43.527936Z",
      "apogee_km": 476.29104998437833,
      "perigee_km": 474.23228902405936,
      "latitude_deg": 5.6818244107380763e-05,
      "longitude_deg": 118.4273084441833,
      "height_km": 476.0803227110201,
      "semi_major_axis_km": 6853.398669504219,
      "eccentricity": 0.0001502,
      "inclination_deg": 53.1595,
      "raan_deg": 155.511,
      "arg_perigee_deg": 85.5963,
      "mean_anomaly_deg": 274.521,
      "mean_motion_rev_day": 15.30184393
    }
  ]
}